EXO-0                   
1 59175U 23174DK  26068.71046781  .00011582  00000+0  36716-3 0  9992
2 59175  97.3864 148.9039 0009878 157.1125 203.0559 15.32821991129797
STARLINK-31835          
1 59772U 24091V   26068.29297188  .00001897  00000+0  76158-4 0  9999
2 59772  53.1617  28.7235 0001282  92.4836 267.6311 15.30196188102941
